start=new Date('2023-02-09T00:00:00.000Z').valueOf();
sats=[{"MEAN_MOTION":"15.06402128","TIME_SYSTEM":"UTC","SEMIMAJOR_AXIS":"6925.342","CENTER_NAME":"EARTH","OBJECT_ID":"2021-021AW","BSTAR":"0.00122210000000","TLE_LINE2":"2 47904  53.0488 271.5397 0001104  69.1495 290.9613 15.06402128106767","APOAPSIS":"547.972","MEAN_ELEMENT_THEORY":"SGP4","RCS_SIZE":"LARGE","MEAN_ANOMALY":"290.9613","EPOCH":"2023-02-08T18:44:12.905088","EPHEMERIS_TYPE":"0","ECCENTRICITY":"0.00011040","SITE":"AFETR","CLASSIFICATION_TYPE":"U","PERIAPSIS":"546.442","PERIOD":"95.592","NORAD_CAT_ID":"47904","LAUNCH_DATE":"2021-03-14","OBJECT_NAME":"STARLINK-2364","MEAN_MOTION_DOT":"0.00017969","RA_OF_ASC_NODE":"271.5397","ELEMENT_SET_NO":"999","GP_ID":"224856873","FILE":"3780893","REV_AT_EPOCH":"10676","REF_FRAME":"TEME","OBJECT_TYPE":"PAYLOAD","COUNTRY_CODE":"US","TLE_LINE1":"1 47904U 21021AW  23039.78070492  .00017969  00000-0  12221-2 0  9996","INCLINATION":"53.0488","MEAN_MOTION_DDOT":"0.0000000000000","ARG_OF_PERICENTER":"69.1495","DECAY_DATE":null},{"MEAN_ANOMALY":"270.3217","EPHEMERIS_TYPE":"0","EPOCH":"2023-02-08T21:48:37.392768","BSTAR":"0.00049012000000","CENTER_NAME":"EARTH","SEMIMAJOR_AXIS":"6925.342","OBJECT_ID":"2021-021AX","TIME_SYSTEM":"UTC","MEAN_MOTION":"15.06402082","RCS_SIZE":"LARGE","APOAPSIS":"548.008","MEAN_ELEMENT_THEORY":"SGP4","TLE_LINE2":"2 47905  53.0512 270.9505 0001157  89.7905 270.3217 15.06402082106910","OBJECT_NAME":"STARLINK-2365","MEAN_MOTION_DOT":"0.00007027","PERIAPSIS":"546.406","CLASSIFICATION_TYPE":"U","SITE":"AFETR","ECCENTRICITY":"0.00011570","LAUNCH_DATE":"2021-03-14","NORAD_CAT_ID":"47905","PERIOD":"95.592","OBJECT_TYPE":"PAYLOAD","REF_FRAME":"TEME","COUNTRY_CODE":"US","RA_OF_ASC_NODE":"270.9505","REV_AT_EPOCH":"10691","FILE":"3780893","GP_ID":"224857623","ELEMENT_SET_NO":"999","INCLINATION":"53.0512","TLE_LINE1":"1 47905U 21021AX  23039.90876612  .00007027  00000-0  49012-3 0  9992","DECAY_DATE":null,"MEAN_MOTION_DDOT":"0.0000000000000","ARG_OF_PERICENTER":"89.7905"},{"EPHEMERIS_TYPE":"0","EPOCH":"2023-02-08T22:00:00.999936","MEAN_ANOMALY":"75.9670","RCS_SIZE":"LARGE","APOAPSIS":"341.315","MEAN_ELEMENT_THEORY":"SGP4","TLE_LINE2":"2 47906  53.0094 351.6470 0002149  92.8828  75.9670 15.76674855  1300","BSTAR":"0.00075226000000","OBJECT_ID":"2021-021AY","SEMIMAJOR_AXIS":"6718.006","CENTER_NAME":"EARTH","TIME_SYSTEM":"UTC","MEAN_MOTION":"15.76674855","MEAN_MOTION_DOT":"0.00124003","OBJECT_NAME":"STARLINK-2366","LAUNCH_DATE":"2021-03-14","NORAD_CAT_ID":"47906","PERIOD":"91.331","CLASSIFICATION_TYPE":"U","PERIAPSIS":"338.428","ECCENTRICITY":"0.00021490","SITE":"AFETR","COUNTRY_CODE":"US","OBJECT_TYPE":"PAYLOAD","REF_FRAME":"TEME","REV_AT_EPOCH":"130","FILE":"3780893","GP_ID":"224857875","ELEMENT_SET_NO":"999","RA_OF_ASC_NODE":"351.6470","DECAY_DATE":null,"ARG_OF_PERICENTER":"92.8828","MEAN_MOTION_DDOT":"0.0000000000000","INCLINATION":"53.0094","TLE_LINE1":"1 47906U 21021AY  23039.91667824  .00124003  00000-0  75226-3 0  9997"},{"TLE_LINE1":"1 47907U 21021AZ  23039.91892449  .00027588  00000-0  18631-2 0  9997","INCLINATION":"53.0534","ARG_OF_PERICENTER":"126.0833","MEAN_MOTION_DDOT":"0.0000000000000","DECAY_DATE":null,"RA_OF_ASC_NODE":"290.9145","ELEMENT_SET_NO":"999","GP_ID":"224858625","FILE":"3780893","REV_AT_EPOCH":"10648","REF_FRAME":"TEME","OBJECT_TYPE":"PAYLOAD","COUNTRY_CODE":"US","ECCENTRICITY":"0.00011610","SITE":"AFETR","PERIAPSIS":"546.371","CLASSIFICATION_TYPE":"U","PERIOD":"95.591","NORAD_CAT_ID":"47907","LAUNCH_DATE":"2021-03-14","OBJECT_NAME":"STARLINK-2367","MEAN_MOTION_DOT":"0.00027588","MEAN_MOTION":"15.06412656","TIME_SYSTEM":"UTC","CENTER_NAME":"EARTH","SEMIMAJOR_AXIS":"6925.310","OBJECT_ID":"2021-021AZ","BSTAR":"0.00186310000000","TLE_LINE2":"2 47907  53.0534 290.9145 0001161 126.0833 234.0263 15.06412656106486","APOAPSIS":"547.979","MEAN_ELEMENT_THEORY":"SGP4","RCS_SIZE":"LARGE","MEAN_ANOMALY":"234.0263","EPOCH":"2023-02-08T22:03:15.075936","EPHEMERIS_TYPE":"0"},{"NORAD_CAT_ID":"47908","PERIOD":"95.592","LAUNCH_DATE":"2021-03-14","SITE":"AFETR","ECCENTRICITY":"0.00010700","PERIAPSIS":"546.450","CLASSIFICATION_TYPE":"U","MEAN_MOTION_DOT":"0.00026829","OBJECT_NAME":"STARLINK-2368","TLE_LINE2":"2 47908  53.0530 290.8811 0001070  94.5682 265.5429 15.06407452106517","RCS_SIZE":"LARGE","APOAPSIS":"547.932","MEAN_ELEMENT_THEORY":"SGP4","TIME_SYSTEM":"UTC","MEAN_MOTION":"15.06407452","BSTAR":"0.00181280000000","OBJECT_ID":"2021-021BA","SEMIMAJOR_AXIS":"6925.326","CENTER_NAME":"EARTH","EPOCH":"2023-02-08T22:13:52.214592","EPHEMERIS_TYPE":"0","MEAN_ANOMALY":"265.5429","MEAN_MOTION_DDOT":"0.0000000000000","ARG_OF_PERICENTER":"94.5682","DECAY_DATE":null,"INCLINATION":"53.0530","TLE_LINE1":"1 47908U 21021BA  23039.92629878  .00026829  00000-0  18128-2 0  9991","ELEMENT_SET_NO":"999","FILE":"3780893","REV_AT_EPOCH":"10651","GP_ID":"224857373","RA_OF_ASC_NODE":"290.8811","COUNTRY_CODE":"US","OBJECT_TYPE":"PAYLOAD","REF_FRAME":"TEME"},{"NORAD_CAT_ID":"47909","PERIOD":"95.592","LAUNCH_DATE":"2021-03-14","ECCENTRICITY":"0.00013270","SITE":"AFETR","PERIAPSIS":"546.279","CLASSIFICATION_TYPE":"U","MEAN_MOTION_DOT":"0.00007609","OBJECT_NAME":"STARLINK-2369","TLE_LINE2":"2 47909  53.0534 280.8114 0001327 108.4575 251.6558 15.06405001106829","RCS_SIZE":"LARGE","APOAPSIS":"548.117","MEAN_ELEMENT_THEORY":"SGP4","TIME_SYSTEM":"UTC","MEAN_MOTION":"15.06405001","BSTAR":"0.00052909000000","CENTER_NAME":"EARTH","SEMIMAJOR_AXIS":"6925.333","OBJECT_ID":"2021-021BB","EPOCH":"2023-02-08T22:36:25.283520","EPHEMERIS_TYPE":"0","MEAN_ANOMALY":"251.6558","MEAN_MOTION_DDOT":"0.0000000000000","ARG_OF_PERICENTER":"108.4575","DECAY_DATE":null,"INCLINATION":"53.0534","TLE_LINE1":"1 47909U 21021BB  23039.94195930  .00007609  00000-0  52909-3 0  9992","ELEMENT_SET_NO":"999","FILE":"3780893","REV_AT_EPOCH":"10682","GP_ID":"224857124","RA_OF_ASC_NODE":"280.8114","COUNTRY_CODE":"US","OBJECT_TYPE":"PAYLOAD","REF_FRAME":"TEME"},{"EPHEMERIS_TYPE":"0","EPOCH":"2023-02-08T21:52:36.268032","MEAN_ANOMALY":"267.8360","RCS_SIZE":"LARGE","APOAPSIS":"548.092","MEAN_ELEMENT_THEORY":"SGP4","TLE_LINE2":"2 47910  53.0526 280.9440 0001265  92.2774 267.8360 15.06399360106670","BSTAR":"0.00052694000000","SEMIMAJOR_AXIS":"6925.351","CENTER_NAME":"EARTH","OBJECT_ID":"2021-021BC","TIME_SYSTEM":"UTC","MEAN_MOTION":"15.06399360","MEAN_MOTION_DOT":"0.00007576","OBJECT_NAME":"STARLINK-2370","LAUNCH_DATE":"2021-03-14","NORAD_CAT_ID":"47910","PERIOD":"95.592","PERIAPSIS":"546.339","CLASSIFICATION_TYPE":"U","ECCENTRICITY":"0.00012650","SITE":"AFETR","COUNTRY_CODE":"US","OBJECT_TYPE":"PAYLOAD","REF_FRAME":"TEME","REV_AT_EPOCH":"10667","FILE":"3780893","GP_ID":"224858375","ELEMENT_SET_NO":"999","RA_OF_ASC_NODE":"280.9440","DECAY_DATE":null,"MEAN_MOTION_DDOT":"0.0000000000000","ARG_OF_PERICENTER":"92.2774","INCLINATION":"53.0526","TLE_LINE1":"1 47910U 21021BC  23039.91153088  .00007576  00000-0  52694-3 0  9993"},{"TLE_LINE1":"1 47911U 21021BD  23039.92770929  .00016387  00000-0  11163-2 0  9999","INCLINATION":"53.0515","MEAN_MOTION_DDOT":"0.0000000000000","ARG_OF_PERICENTER":"82.0459","DECAY_DATE":null,"RA_OF_ASC_NODE":"296.1205","ELEMENT_SET_NO":"999","GP_ID":"224858126","FILE":"3780893","REV_AT_EPOCH":"10629","REF_FRAME":"TEME","OBJECT_TYPE":"PAYLOAD","COUNTRY_CODE":"US","SITE":"AFETR","ECCENTRICITY":"0.00013340","PERIAPSIS":"546.271","CLASSIFICATION_TYPE":"U","PERIOD":"95.592","NORAD_CAT_ID":"47911","LAUNCH_DATE":"2021-03-14","OBJECT_NAME":"STARLINK-2371","MEAN_MOTION_DOT":"0.00016387","MEAN_MOTION":"15.06406045","TIME_SYSTEM":"UTC","OBJECT_ID":"2021-021BD","SEMIMAJOR_AXIS":"6925.330","CENTER_NAME":"EARTH","BSTAR":"0.00111630000000","TLE_LINE2":"2 47911  53.0515 296.1205 0001334  82.0459 278.0681 15.06406045106298","APOAPSIS":"548.119","MEAN_ELEMENT_THEORY":"SGP4","RCS_SIZE":"LARGE","MEAN_ANOMALY":"278.0681","EPOCH":"2023-02-08T22:15:54.082656","EPHEMERIS_TYPE":"0"},{"MEAN_MOTION_DOT":"0.00014124","OBJECT_NAME":"STARLINK-2372","PERIOD":"95.592","NORAD_CAT_ID":"47912","LAUNCH_DATE":"2021-03-14","SITE":"AFETR","ECCENTRICITY":"0.00010110","CLASSIFICATION_TYPE":"U","PERIAPSIS":"546.502","EPOCH":"2023-02-08T21:41:59.065440","EPHEMERIS_TYPE":"0","MEAN_ANOMALY":"281.7954","TLE_LINE2":"2 47912  53.0517 280.9726 0001011  78.3148 281.7954 15.06403876106502","APOAPSIS":"547.902","MEAN_ELEMENT_THEORY":"SGP4","RCS_SIZE":"LARGE","MEAN_MOTION":"15.06403876","TIME_SYSTEM":"UTC","OBJECT_ID":"2021-021BE","SEMIMAJOR_AXIS":"6925.337","CENTER_NAME":"EARTH","BSTAR":"0.00096508000000","MEAN_MOTION_DDOT":"0.0000000000000","ARG_OF_PERICENTER":"78.3148","DECAY_DATE":null,"TLE_LINE1":"1 47912U 21021BE  23039.90415585  .00014124  00000-0  96508-3 0  9996","INCLINATION":"53.0517","COUNTRY_CODE":"US","REF_FRAME":"TEME","OBJECT_TYPE":"PAYLOAD","ELEMENT_SET_NO":"999","GP_ID":"224856874","FILE":"3780893","REV_AT_EPOCH":"10650","RA_OF_ASC_NODE":"280.9726"},{"ARG_OF_PERICENTER":"113.7625","MEAN_MOTION_DDOT":"0.0000000000000","DECAY_DATE":null,"INCLINATION":"53.0532","TLE_LINE1":"1 47913U 21021BF  23039.91160930  .00010095  00000-0  69557-3 0  9996","ELEMENT_SET_NO":"999","FILE":"3780893","REV_AT_EPOCH":"10652","GP_ID":"224857624","RA_OF_ASC_NODE":"291.4208","COUNTRY_CODE":"US","OBJECT_TYPE":"PAYLOAD","REF_FRAME":"TEME","NORAD_CAT_ID":"47913","PERIOD":"95.592","LAUNCH_DATE":"2021-03-14","SITE":"AFETR","ECCENTRICITY":"0.00013040","CLASSIFICATION_TYPE":"U","PERIAPSIS":"546.304","MEAN_MOTION_DOT":"0.00010095","OBJECT_NAME":"STARLINK-2374","TLE_LINE2":"2 47913  53.0532 291.4208 0001304 113.7625 246.3501 15.06401973106524","RCS_SIZE":"LARGE","APOAPSIS":"548.111","MEAN_ELEMENT_THEORY":"SGP4","TIME_SYSTEM":"UTC","MEAN_MOTION":"15.06401973","BSTAR":"0.00069557000000","SEMIMAJOR_AXIS":"6925.343","CENTER_NAME":"EARTH","OBJECT_ID":"2021-021BF","EPOCH":"2023-02-08T21:52:43.043520","EPHEMERIS_TYPE":"0","MEAN_ANOMALY":"246.3501"}];
